QIANFAN-57              
1 62787U 25016C   25310.75579991  .00000046  00000+0  51935-4 0  9993
2 62787  88.9755 106.9116 0000969 111.6947 248.4307 13.50977619 42340
QIANFAN-58              
1 62788U 25016D   25310.80104603  .00000059  00000+0  72982-4 0  9993
2 62788  88.9725 106.7496 0015546  88.1601 272.1330 13.50977353 42399
QIANFAN-59              
1 62789U 25016E   25310.75166494  .00000047  00000+0  54096-4 0  9997
2 62789  88.9748 106.8198 0015945  91.6461 268.6517 13.50976794 42385
QIANFAN-60              
1 62790U 25016F   25310.78474921  .00000047  00000+0  53506-4 0  9994
2 62790  88.9730 106.7948 0017465  88.3501 271.9650 13.50973687 42379
QIANFAN-61              
1 62791U 25016G   25310.81747163  .00000036  00000+0  37292-4 0  9992
2 62791  88.9797 106.9298 0016398  87.7064 272.5965 13.50977044 42393
QIANFAN-62              
1 62792U 25016H   25310.74766588  .00000048  00000+0  55180-4 0  9996
2 62792  88.9743 106.8249 0017791  88.1928 272.1260 13.50980698 42373
QIANFAN-63              
1 62793U 25016J   25310.77229522  .00000046  00000+0  52071-4 0  9996
2 62793  88.9750 106.7714 0017845  92.9509 267.3685 13.50973794 42417
QIANFAN-64              
1 62794U 25016K   25310.73933455  .00000052  00000+0  61975-4 0  9990
2 62794  88.9737 106.7538 0015769  86.7707 273.5248 13.50975647 42403
